[{"OBJECT_NAME":"CUAVA-2","OBJECT_ID":"2024-149BM","EPOCH":"2026-03-09T11:16:09.234912","MEAN_MOTION":15.33611708,"ECCENTRICITY":0.00056694,"INCLINATION":97.3769,"RA_OF_ASC_NODE":149.9859,"ARG_OF_PERICENTER":291.2139,"MEAN_ANOMALY":68.8497,"EPHEMERIS_TYPE":0,"CLASSIFICATION_TYPE":"U","NORAD_CAT_ID":60527,"ELEMENT_SET_NO":999,"REV_AT_EPOCH":8687,"BSTAR":0.00047570318,"MEAN_MOTION_DOT":0.000154,"MEAN_MOTION_DDOT":0},{"OBJECT_NAME":"STARLINK-35416","OBJECT_ID":"2025-245Q","EPOCH":"2026-03-09T20:48:09.306432","MEAN_MOTION":15.30244737,"ECCENTRICITY":0.00016047,"INCLINATION":53.1591,"RA_OF_ASC_NODE":283.0705,"ARG_OF_PERICENTER":57.4199,"MEAN_ANOMALY":302.6957,"EPHEMERIS_TYPE":0,"CLASSIFICATION_TYPE":"U","NORAD_CAT_ID":66248,"ELEMENT_SET_NO":999,"REV_AT_EPOCH":2122,"BSTAR":0.001032988,"MEAN_MOTION_DOT":0.00030403,"MEAN_MOTION_DDOT":0}]
