CUAVA-2                 
1 60527U 24149BM  26068.46955133  .00015400  00000+0  47570-3 0  9993
2 60527  97.3769 149.9859 0005669 291.2139  68.8497 15.33611708 86877
STARLINK-35416          
1 66248U 25245Q   26068.86677438  .00030403  00000+0  10330-2 0  9993
2 66248  53.1591 283.0705 0001605  57.4199 302.6957 15.30244737 21229
